{"type": "FeatureCollection", "features": [ {"type": "Feature", "properties": {"norad_id": 36261, "name": "FENGYUN 1C DEB", "group": "fengyun-1c-debris", "lat": 9.381919867797004, "lon": -125.79157003687773, "alt_km": 997.0602127479196, "timestamp": "2025-12-10T05:46:14.111412+00:00", "meta": {"OBJECT_NAME": "FENGYUN 1C DEB", "OBJECT_ID": "1999-025DWN", "EPOCH": "2025-12-09T10:05:36.414240", "MEAN_MOTION": 13.45475654, "ECCENTRICITY": 0.03555393, "INCLINATION": 101.365, "RA_OF_ASC_NODE": 235.1844, "ARG_OF_PERICENTER": 82.9277, "MEAN_ANOMALY": 281.2133, "EPHEMERIS_TYPE": 0, "CLASSIFICATION_TYPE": "U", "NORAD_CAT_ID": 36261, "ELEMENT_SET_NO": 999, "REV_AT_EPOCH": 84388, "BSTAR": 0.00081150243, "MEAN_MOTION_DOT": 6.52e-06, "MEAN_MOTION_DDOT": 0}, "tle": {"line1": "1 36261U 99025DWN 25343.42056035  .00000652  00000+0  81150-3 0  9995", "line2": "2 36261 101.3650 235.1844 0355539  82.9277 281.2133 13.45475654843883"}}, "geometry": {"type": "Point", "coordinates": [-125.79157003687773, 9.381919867797004]}}, {"type": "Feature", "properties": {"norad_id": 36262, "name": "FENGYUN 1C DEB", "group": "fengyun-1c-debris", "lat": 28.52693921519817, "lon": -140.23912345346898, "alt_km": 809.4768745007086, "timestamp": "2025-12-10T05:46:14.111422+00:00", "meta": {"OBJECT_NAME": "FENGYUN 1C DEB", "OBJECT_ID": "1999-025DWP", "EPOCH": "2025-12-08T09:54:26.531712", "MEAN_MOTION": 14.27796215, "ECCENTRICITY": 0.00599528, "INCLINATION": 98.9618, "RA_OF_ASC_NODE": 222.8075, "ARG_OF_PERICENTER": 288.1373, "MEAN_ANOMALY": 71.3285, "EPHEMERIS_TYPE": 0, "CLASSIFICATION_TYPE": "U", "NORAD_CAT_ID": 36262, "ELEMENT_SET_NO": 999, "REV_AT_EPOCH": 89435, "BSTAR": 0.0005578287, "MEAN_MOTION_DOT": 1.358e-05, "MEAN_MOTION_DDOT": 0}, "tle": {"line1": "1 36262U 99025DWP 25342.41280708  .00001358  00000+0  55783-3 0  9997", "line2": "2 36262  98.9618 222.8075 0059952 288.1373  71.3285 14.27796215894359"}}, "geometry": {"type": "Point", "coordinates": [-140.23912345346898, 28.52693921519817]}}, {"type": "Feature", "properties": {"norad_id": 36263, "name": "FENGYUN 1C DEB", "group": "fengyun-1c-debris", "lat": 38.81405951791087, "lon": -142.1859360424478, "alt_km": 752.7062468993881, "timestamp": "2025-12-10T05:46:14.111432+00:00", "meta": {"OBJECT_NAME": "FENGYUN 1C DEB", "OBJECT_ID": "1999-025DWQ", "EPOCH": "2025-12-05T22:35:35.438496", "MEAN_MOTION": 14.45500291, "ECCENTRICITY": 0.00368573, "INCLINATION": 98.9995, "RA_OF_ASC_NODE": 220.5826, "ARG_OF_PERICENTER": 285.5558, "MEAN_ANOMALY": 74.1564, "EPHEMERIS_TYPE": 0, "CLASSIFICATION_TYPE": "U", "NORAD_CAT_ID": 36263, "ELEMENT_SET_NO": 999, "REV_AT_EPOCH": 87887, "BSTAR": 0.0032840515, "MEAN_MOTION_DOT": 0.00011644, "MEAN_MOTION_DDOT": 0}, "tle": {"line1": "1 36263U 99025DWQ 25339.94138239  .00011644  00000+0  32841-2 0  9991", "line2": "2 36263  98.9995 220.5826 0036857 285.5558  74.1564 14.45500291878879"}}, "geometry": {"type": "Point", "coordinates": [-142.1859360424478, 38.81405951791087]}}, {"type": "Feature", "properties": {"norad_id": 36267, "name": "FENGYUN 1C DEB", "group": "fengyun-1c-debris", "lat": -46.00958065432799, "lon": 102.77902673919935, "alt_km": 778.5002496603347, "timestamp": "2025-12-10T05:46:14.111442+00:00", "meta": {"OBJECT_NAME": "FENGYUN 1C DEB", "OBJECT_ID": "1999-025DWU", "EPOCH": "2025-12-06T02:08:43.155168", "MEAN_MOTION": 14.09059757, "ECCENTRICITY": 0.01266796, "INCLINATION": 98.5595, "RA_OF_ASC_NODE": 287.81, "ARG_OF_PERICENTER": 229.7401, "MEAN_ANOMALY": 191.5113, "EPHEMERIS_TYPE": 0, "CLASSIFICATION_TYPE": "U", "NORAD_CAT_ID": 36267, "ELEMENT_SET_NO": 999, "REV_AT_EPOCH": 86436, "BSTAR": 0.0020214884, "MEAN_MOTION_DOT": 3.734e-05, "MEAN_MOTION_DDOT": 0}, "tle": {"line1": "1 36267U 99025DWU 25340.08938837  .00003734  00000+0  20215-2 0  9997", "line2": "2 36267  98.5595 287.8100 0126679 229.7401 191.5113 14.09059757864364"}}, "geometry": {"type": "Point", "coordinates": [102.77902673919935, -46.00958065432799]}}, {"type": "Feature", "properties": {"norad_id": 36269, "name": "FENGYUN 1C DEB", "group": "fengyun-1c-debris", "lat": 4.887737000462842, "lon": 106.88206058846252, "alt_km": 863.6224164535752, "timestamp": "2025-12-10T05:46:14.111451+00:00", "meta": {"OBJECT_NAME": "FENGYUN 1C DEB", "OBJECT_ID": "1999-025DWW", "EPOCH": "2025-12-09T13:47:06.134784", "MEAN_MOTION": 14.27013295, "ECCENTRICITY": 0.0233384, "INCLINATION": 99.1074, "RA_OF_ASC_NODE": 285.4023, "ARG_OF_PERICENTER": 288.9499, "MEAN_ANOMALY": 68.6519, "EPHEMERIS_TYPE": 0, "CLASSIFICATION_TYPE": "U", "NORAD_CAT_ID": 36269, "ELEMENT_SET_NO": 999, "REV_AT_EPOCH": 87671, "BSTAR": 0.0013246, "MEAN_MOTION_DOT": 4.249e-05, "MEAN_MOTION_DDOT": 0}, "tle": {"line1": "1 36269U 99025DWW 25343.57437656  .00004249  00000+0  13246-2 0  9997", "line2": "2 36269  99.1074 285.4023 0233384 288.9499  68.6519 14.27013295876712"}}, "geometry": {"type": "Point", "coordinates": [106.88206058846252, 4.887737000462842]}}, {"type": "Feature", "properties": {"norad_id": 36272, "name": "FENGYUN 1C DEB", "group": "fengyun-1c-debris", "lat": -7.226952246874686, "lon": -138.37406140184353, "alt_km": 810.396525841169, "timestamp": "2025-12-10T05:46:14.111462+00:00", "meta": {"OBJECT_NAME": "FENGYUN 1C DEB", "OBJECT_ID": "1999-025DWZ", "EPOCH": "2025-12-09T09:28:20.820288", "MEAN_MOTION": 14.17240397, "ECCENTRICITY": 0.01680391, "INCLINATION": 99.1377, "RA_OF_ASC_NODE": 219.5871, "ARG_OF_PERICENTER": 277.6482, "MEAN_ANOMALY": 80.5636, "EPHEMERIS_TYPE": 0, "CLASSIFICATION_TYPE": "U", "NORAD_CAT_ID": 36272, "ELEMENT_SET_NO": 999, "REV_AT_EPOCH": 63569, "BSTAR": 0.00088449826, "MEAN_MOTION_DOT": 2.003e-05, "MEAN_MOTION_DDOT": 0}, "tle": {"line1": "1 36272U 99025DWZ 25343.39468542  .00002003  00000+0  88450-3 0  9995", "line2": "2 36272  99.1377 219.5871 0168039 277.6482  80.5636 14.17240397635699"}}, "geometry": {"type": "Point", "coordinates": [-138.37406140184353, -7.226952246874686]}}, {"type": "Feature", "properties": {"norad_id": 36273, "name": "FENGYUN 1C DEB", "group": "fengyun-1c-debris", "lat": -19.175560837724483, "lon": -143.13141858209957, "alt_km": 773.8340928835541, "timestamp": "2025-12-10T05:46:14.111471+00:00", "meta": {"OBJECT_NAME": "FENGYUN 1C DEB", "OBJECT_ID": "1999-025DXA", "EPOCH": "2025-12-03T21:17:46.785120", "MEAN_MOTION": 14.16550178, "ECCENTRICITY": 0.009769, "INCLINATION": 99.6049, "RA_OF_ASC_NODE": 206.6416, "ARG_OF_PERICENTER": 13.2177, "MEAN_ANOMALY": 347.152, "EPHEMERIS_TYPE": 0, "CLASSIFICATION_TYPE": "U", "NORAD_CAT_ID": 36273, "ELEMENT_SET_NO": 999, "REV_AT_EPOCH": 66108, "BSTAR": 0.00050173, "MEAN_MOTION_DOT": 9.97e-06, "MEAN_MOTION_DDOT": 0}, "tle": {"line1": "1 36273U 99025DXA 25337.88734705  .00000997  00000+0  50173-3 0  9991", "line2": "2 36273  99.6049 206.6416 0097690  13.2177 347.1520 14.16550178661088"}}, "geometry": {"type": "Point", "coordinates": [-143.13141858209957, -19.175560837724483]}}, {"type": "Feature", "properties": {"norad_id": 36274, "name": "FENGYUN 1C DEB", "group": "fengyun-1c-debris", "lat": -64.46256171215002, "lon": 77.99365200881007, "alt_km": 796.1958839451554, "timestamp": "2025-12-10T05:46:14.111481+00:00", "meta": {"OBJECT_NAME": "FENGYUN 1C DEB", "OBJECT_ID": "1999-025DXB", "EPOCH": "2025-12-09T11:35:55.514688", "MEAN_MOTION": 14.23402311, "ECCENTRICITY": 0.00622561, "INCLINATION": 99.139, "RA_OF_ASC_NODE": 57.5181, "ARG_OF_PERICENTER": 239.4806, "MEAN_ANOMALY": 136.1937, "EPHEMERIS_TYPE": 0, "CLASSIFICATION_TYPE": "U", "NORAD_CAT_ID": 36274, "ELEMENT_SET_NO": 999, "REV_AT_EPOCH": 62939, "BSTAR": 0.0044809329, "MEAN_MOTION_DOT": 0.00010342, "MEAN_MOTION_DDOT": 0}, "tle": {"line1": "1 36274U 99025DXB 25343.48328142  .00010342  00000+0  44809-2 0  9992", "line2": "2 36274  99.1390  57.5181 0062256 239.4806 136.1937 14.23402311629395"}}, "geometry": {"type": "Point", "coordinates": [77.99365200881007, -64.46256171215002]}}, {"type": "Feature", "properties": {"norad_id": 36278, "name": "FENGYUN 1C DEB", "group": "fengyun-1c-debris", "lat": -35.40009061201964, "lon": 75.90809860975901, "alt_km": 834.2229676571287, "timestamp": "2025-12-10T05:46:14.111493+00:00", "meta": {"OBJECT_NAME": "FENGYUN 1C DEB", "OBJECT_ID": "1999-025DXF", "EPOCH": "2025-12-04T01:21:08.443872", "MEAN_MOTION": 14.17353569, "ECCENTRICITY": 0.00613363, "INCLINATION": 99.1236, "RA_OF_ASC_NODE": 256.1206, "ARG_OF_PERICENTER": 315.5831, "MEAN_ANOMALY": 44.0433, "EPHEMERIS_TYPE": 0, "CLASSIFICATION_TYPE": "U", "NORAD_CAT_ID": 36278, "ELEMENT_SET_NO": 999, "REV_AT_EPOCH": 93353, "BSTAR": 0.0008477729, "MEAN_MOTION_DOT": 1.7e-05, "MEAN_MOTION_DDOT": 0}, "tle": {"line1": "1 36278U 99025DXF 25338.05634773  .00001700  00000+0  84777-3 0  9990", "line2": "2 36278  99.1236 256.1206 0061336 315.5831  44.0433 14.17353569933530"}}, "geometry": {"type": "Point", "coordinates": [75.90809860975901, -35.40009061201964]}}, {"type": "Feature", "properties": {"norad_id": 36279, "name": "FENGYUN 1C DEB", "group": "fengyun-1c-debris", "lat": -79.73774191534046, "lon": 86.04747029371995, "alt_km": 892.7667863012321, "timestamp": "2025-12-10T05:46:14.111503+00:00", "meta": {"OBJECT_NAME": "FENGYUN 1C DEB", "OBJECT_ID": "1999-025DXG", "EPOCH": "2025-12-08T04:59:58.612992", "MEAN_MOTION": 14.147242, "ECCENTRICITY": 0.00630677, "INCLINATION": 98.5605, "RA_OF_ASC_NODE": 320.3989, "ARG_OF_PERICENTER": 68.1387, "MEAN_ANOMALY": 292.6479, "EPHEMERIS_TYPE": 0, "CLASSIFICATION_TYPE": "U", "NORAD_CAT_ID": 36279, "ELEMENT_SET_NO": 999, "REV_AT_EPOCH": 88975, "BSTAR": 0.00024838235, "MEAN_MOTION_DOT": 4.46e-06, "MEAN_MOTION_DDOT": 0}, "tle": {"line1": "1 36279U 99025DXG 25342.20831728  .00000446  00000+0  24838-3 0  9990", "line2": "2 36279  98.5605 320.3989 0063067  68.1387 292.6479 14.14724200889752"}}, "geometry": {"type": "Point", "coordinates": [86.04747029371995, -79.73774191534046]}}]}